ISS (ZARYA)             
1 25544U 98067A   25322.35181354  .00014877  00000+0  27011-3 0  9994
2 25544  51.6332 263.1865 0004177  83.8870 276.2595 15.49788164539079
CSS (TIANHE)            
1 48274U 21035A   25322.04796534  .00024701  00000+0  30851-3 0  9991
2 48274  41.4653 166.5244 0006988 186.4201 173.6548 15.59247950260178
ISS (NAUKA)             
1 49044U 21066A   25321.90043553  .00014804  00000+0  26899-3 0  9991
2 49044  51.6331 265.4223 0004180  82.0364 278.1099 15.49772275230440
FREGAT DEB              
1 49271U 11037PF  25321.55102087  .00011346  00000+0  24565-1 0  9993
2 49271  51.6212 273.9257 0877270 169.5316 192.5188 12.34114161198825
CSS (WENTIAN)           
1 53239U 22085A   25322.04796534  .00024701  00000+0  30851-3 0  9994
2 53239  41.4653 166.5244 0006988 186.4201 173.6548 15.59247950173842
CSS (MENGTIAN)          
1 54216U 22143A   25322.04796534  .00024701  00000+0  30851-3 0  9995
2 54216  41.4653 166.5244 0006988 186.4201 173.6548 15.59247950158649
SOYUZ-MS 27             
1 63520U 25072A   25321.90043553  .00014804  00000+0  26899-3 0  9997
2 63520  51.6331 265.4223 0004180  82.0364 278.1099 15.49772275 20206
SHENZHOU-20 (SZ-20)     
1 63632U 25082A   25322.04796534  .00024701  00000+0  30851-3 0  9992
2 63632  41.4653 166.5244 0006988 186.4201 173.6548 15.59247950255302
PROGRESS-MS 31          
1 64751U 25146A   25321.90043553  .00014804  00000+0  26899-3 0  9996
2 64751  51.6331 265.4223 0004180  82.0364 278.1099 15.49772275  6757
TIANZHOU-9              
1 64786U 25149A   25322.04796534  .00024701  00000+0  30851-3 0  9997
2 64786  41.4653 166.5244 0006988 186.4201 173.6548 15.59247950255303
CREW DRAGON 11          
1 65077U 25166A   25321.90043553  .00014804  00000+0  26899-3 0  9990
2 65077  51.6331 265.4223 0004180  82.0364 278.1099 15.49772275  2148
DRAGON CRS-33           
1 65304U 25186A   25321.90043553  .00014804  00000+0  26899-3 0  9995
2 65304  51.6331 265.4223 0004180  82.0364 278.1099 15.49772275   116
